LEMUR-2-GREENBERG       
1 42837U 17042N   26068.46200528  .00019778  00000+0  72539-3 0  9997
2 42837  97.3781 249.8007 0009157   4.0119 356.1192 15.27971352473146
STARLINK-34934          
1 65897U 25224R   26068.27912694  .00023731  00000+0  81098-3 0  9996
2 65897  53.1605  13.0952 0001412  84.2251 275.8911 15.30192145 24760
